NORAD_CAT_ID,OBJECT_NAME,OBJECT_TYPE,EPOCH,MEAN_MOTION,ECCENTRICITY,INCLINATION,RA_OF_ASC_NODE,ARG_OF_PERICENTER,MEAN_ANOMALY,BSTAR,MEAN_MOTION_DOT,MEAN_MOTION_DDOT,TLE_LINE0,TLE_LINE1,TLE_LINE2,SEMIMAJOR_AXIS,PERIOD,APOGEE,PERIGEE,DECAYED
55918.0,STARLINK-5867,PAYLOAD,2024-08-17 05:17:09,14.98352513,0.0002946,70.0009,300.3934,262.5323,97.5501,0.00014319,1.617e-05,0.0,0 STARLINK-5867,1 55918U 23037E   24230.22024832  .00001617  00000-0  14319-3 0  9993,2 55918  70.0009 300.3934 0002946 262.5323  97.5501 14.98352513 78522,6950.123,96.106,574.036,569.941,0.0
55918.0,STARLINK-5867,PAYLOAD,2024-08-17 08:29:25,14.98342813,0.0002963,69.9994,300.0567,262.7606,97.3216,0.00029569,3.438e-05,0.0,0 STARLINK-5867,1 55918U 23037E   24230.35377172  .00003438  00000-0  29569-3 0  9991,2 55918  69.9994 300.0567 0002963 262.7606  97.3216 14.98342813 78541,6950.153,96.106,574.078,569.959,0.0
55918.0,STARLINK-5867,PAYLOAD,2024-08-18 05:19:09,14.98355963,0.0003261,69.9991,297.8677,281.4269,78.6524,-0.0005444,-6.587e-05,0.0,0 STARLINK-5867,1 55918U 23037E   24231.22163793 -.00006587  00000-0 -54440-3 0  9996,2 55918  69.9991 297.8677 0003261 281.4269  78.6524 14.98355963 78339,6950.113,96.105,574.244,569.711,0.0
55918.0,STARLINK-5867,PAYLOAD,2024-08-18 13:19:50,14.983489,0.0002821,69.9988,297.0274,277.3966,82.6872,-8.1937e-06,-1.91e-06,0.0,0 STARLINK-5867,1 55918U 23037E   24231.55544001 -.00000191  00000-0 -81937-5 0  9995,2 55918  69.9988 297.0274 0002821 277.3966  82.6872 14.98348900 78726,6950.134,96.106,573.96,570.039,0.0
55918.0,STARLINK-5867,PAYLOAD,2024-08-18 14:55:57,14.98349718,0.0002759,69.999,296.8596,274.7984,85.286,-1.4732e-06,-1.11e-06,0.0,0 STARLINK-5867,1 55918U 23037E   24231.62219830 -.00000111  00000-0 -14732-5 0  9993,2 55918  69.9990 296.8596 0002759 274.7984  85.2860 14.98349718 78391,6950.132,96.106,573.914,570.079,0.0
55918.0,STARLINK-5867,PAYLOAD,2024-08-19 05:21:11,14.98326563,0.0002235,70.0011,295.347,259.2251,100.8657,3.4746e-05,3.22e-06,0.0,0 STARLINK-5867,1 55918U 23037E   24232.22304813  .00000322  00000-0  34746-4 0  9994,2 55918  70.0011 295.3470 0002235 259.2251 100.8657 14.98326563 78826,6950.204,96.107,573.622,570.515,0.0
55918.0,STARLINK-5867,PAYLOAD,2024-08-19 10:09:35,14.98322588,0.0002506,70.0002,294.8417,264.9595,95.1278,-2.8538e-05,-4.33e-06,0.0,0 STARLINK-5867,1 55918U 23037E   24232.42333231 -.00000433  00000-0 -28538-4 0  9999,2 55918  70.0002 294.8417 0002506 264.9595  95.1278 14.98322588 78510,6950.216,96.107,573.823,570.339,0.0
55918.0,STARLINK-5867,PAYLOAD,2024-08-20 05:23:11,14.98335307,0.0003144,69.9978,292.8192,274.3675,85.7124,-3.1941e-05,-4.74e-06,0.0,0 STARLINK-5867,1 55918U 23037E   24233.22444398 -.00000474  00000-0 -31941-4 0  9992,2 55918  69.9978 292.8192 0003144 274.3675  85.7124 14.98335307 78978,6950.176,96.107,574.227,569.856,0.0
55918.0,STARLINK-5867,PAYLOAD,2024-08-20 13:23:51,14.98337978,0.0002717,69.999,291.9785,267.6274,92.4573,3.2872e-05,2.99e-06,0.0,0 STARLINK-5867,1 55918U 23037E   24233.55823960  .00000299  00000-0  32872-4 0  9991,2 55918  69.9990 291.9785 0002717 267.6274  92.4573 14.98337978 78682,6950.168,96.106,573.922,570.145,0.0
55918.0,STARLINK-5867,PAYLOAD,2024-08-21 13:25:53,14.98322815,0.0002832,69.9987,289.4532,265.3446,94.739,8.0246e-05,8.64e-06,0.0,0 STARLINK-5867,1 55918U 23037E   24234.55964960  .00000864  00000-0  80246-4 0  9994,2 55918  69.9987 289.4532 0002832 265.3446  94.7390 14.98322815 79175,6950.215,96.107,574.048,570.112,0.0
